{
  "norad_id": 62656,
  "name": "TRANSPORTER-12 OBJECT AZ",
  "history": [
    {
      "epoch": "2026-03-28T17:37:15.136608Z",
      "apogee_km": 473.44110925979567,
      "perigee_km": 472.68048928012104,
      "latitude_deg": -6.424243656231934e-06,
      "longitude_deg": 80.48893229851998,
      "height_km": 476.52062216217496,
      "semi_major_axis_km": 6851.1977992699585,
      "eccentricity": 5.551e-05,
      "inclination_deg": 97.3962,
      "raan_deg": 170.9524,
      "arg_perigee_deg": 158.8261,
      "mean_anomaly_deg": 201.3003,
      "mean_motion_rev_day": 15.30921784
    },
    {
      "epoch": "2026-03-29T04:36:05.960160Z",
      "apogee_km": 473.3865165472971,
      "perigee_km": 472.6054873850726,
      "latitude_deg": 3.1014708633009245e-05,
      "longitude_deg": -84.21770212841139,
      "height_km": 476.4676471995575,
      "semi_major_axis_km": 6851.133001966185,
      "eccentricity": 5.7e-05,
      "inclination_deg": 97.3962,
      "raan_deg": 171.4085,
      "arg_perigee_deg": 159.7701,
      "mean_anomaly_deg": 200.3563,
      "mean_motion_rev_day": 15.30943503
    },
    {
      "epoch": "2026-03-30T04:07:53.344416Z",
      "apogee_km": 473.32070484013457,
      "perigee_km": 472.4492548442977,
      "latitude_deg": 6.843642513023606e-05,
      "longitude_deg": -77.15407648764058,
      "height_km": 476.4033531957148,
      "semi_major_axis_km": 6851.021979842216,
      "eccentricity": 6.36e-05,
      "inclination_deg": 97.3961,
      "raan_deg": 172.3859,
      "arg_perigee_deg": 161.456,
      "mean_anomaly_deg": 198.6705,
      "mean_motion_rev_day": 15.30980717
    },
    {
      "epoch": "2026-03-30T11:58:28.636320Z",
      "apogee_km": 473.29803859490676,
      "perigee_km": 472.3917907072364,
      "latitude_deg": 7.400305616674913e-07,
      "longitude_deg": 165.2025768527332,
      "height_km": 476.3803259357669,
      "semi_major_axis_km": 6850.981914651072,
      "eccentricity": 6.614e-05,
      "inclination_deg": 97.396,
      "raan_deg": 172.7117,
      "arg_perigee_deg": 161.6628,
      "mean_anomaly_deg": 198.4637,
      "mean_motion_rev_day": 15.30994147
    },
    {
      "epoch": "2026-03-30T18:14:56.711040Z",
      "apogee_km": 473.2818010089386,
      "perigee_km": 472.3470571959524,
      "latitude_deg": -4.704782783936367e-05,
      "longitude_deg": 71.08852219435724,
      "height_km": 476.36586014381595,
      "semi_major_axis_km": 6850.951429102445,
      "eccentricity": 6.822e-05,
      "inclination_deg": 97.396,
      "raan_deg": 172.9723,
      "arg_perigee_deg": 162.6488,
      "mean_anomaly_deg": 197.4776,
      "mean_motion_rev_day": 15.31004366
    },
    {
      "epoch": "2026-03-31T05:13:45.477408Z",
      "apogee_km": 473.2668472860023,
      "perigee_km": 472.27072558465443,
      "latitude_deg": -8.317848665055843e-06,
      "longitude_deg": -93.60951674188081,
      "height_km": 476.3474567450411,
      "semi_major_axis_km": 6850.905786435328,
      "eccentricity": 7.27e-05,
      "inclination_deg": 97.3961,
      "raan_deg": 173.4284,
      "arg_perigee_deg": 161.8793,
      "mean_anomaly_deg": 198.2474,
      "mean_motion_rev_day": 15.31019666
    },
    {
      "epoch": "2026-04-01T04:45:28.622016Z",
      "apogee_km": 473.2128403519546,
      "perigee_km": 472.1338377235561,
      "latitude_deg": 8.111818061623253e-06,
      "longitude_deg": -86.52807409286429,
      "height_km": 476.2921051177509,
      "semi_major_axis_km": 6850.8103390377555,
      "eccentricity": 7.875e-05,
      "inclination_deg": 97.3959,
      "raan_deg": 174.4059,
      "arg_perigee_deg": 162.1125,
      "mean_anomaly_deg": 198.0144,
      "mean_motion_rev_day": 15.31051662
    },
    {
      "epoch": "2026-04-02T04:17:09.973824Z",
      "apogee_km": 473.1430410965595,
      "perigee_km": 471.97157237010924,
      "latitude_deg": 3.3801092940544156e-06,
      "longitude_deg": -79.43913848920502,
      "height_km": 476.2208033559012,
      "semi_major_axis_km": 6850.694306733334,
      "eccentricity": 8.55e-05,
      "inclination_deg": 97.3958,
      "raan_deg": 175.3834,
      "arg_perigee_deg": 162.3345,
      "mean_anomaly_deg": 197.7926,
      "mean_motion_rev_day": 15.3109056
    }
  ]
}